{
  "type": "FeatureCollection",
  "features": [
    {
      "type": "Feature",
      "properties": {
        "norad_id": 33665,
        "name": "FENGYUN 1C DEB",
        "group": "fengyun-1c-debris",
        "lat": -31.754951818477096,
        "lon": 105.54924104772651,
        "alt_km": 1120.0244817405774,
        "timestamp": "2025-12-08T08:59:01.052778+00:00",
        "meta_object_name": "FENGYUN 1C DEB",
        "meta_object_id": "1999-025DFA",
        "meta_epoch": "2025-11-30T14:39:07.562016",
        "meta_mean_motion": 14.03506601,
        "meta_eccentricity": 0.0456092,
        "meta_inclination": 99.0223,
        "meta_ra_of_asc_node": 92.1738,
        "meta_arg_of_pericenter": 126.0265,
        "meta_mean_anomaly": 238.4072,
        "meta_ephemeris_type": 0,
        "meta_classification_type": "U",
        "meta_norad_cat_id": 33665,
        "meta_element_set_no": 999,
        "meta_rev_at_epoch": 92421,
        "meta_bstar": 0.0013543,
        "meta_mean_motion_dot": 5.359e-05,
        "meta_mean_motion_ddot": 0,
        "tle_line1": "1 33665U 99025DFA 25334.61050419  .00005359  00000+0  13543-2 0  9990",
        "tle_line2": "2 33665  99.0223  92.1738 0456092 126.0265 238.4072 14.03506601924218"
      },
      "geometry": {
        "type": "Point",
        "coordinates": [
          105.54924104772651,
          -31.754951818477096
        ]
      }
    },
    {
      "type": "Feature",
      "properties": {
        "norad_id": 33673,
        "name": "FENGYUN 1C DEB",
        "group": "fengyun-1c-debris",
        "lat": 51.768891486727334,
        "lon": 17.059046579275208,
        "alt_km": 982.6222068248653,
        "timestamp": "2025-12-08T08:59:01.052789+00:00",
        "meta_object_name": "FENGYUN 1C DEB",
        "meta_object_id": "1999-025DFJ",
        "meta_epoch": "2025-12-07T14:32:49.071264",
        "meta_mean_motion": 13.95529173,
        "meta_eccentricity": 0.01074586,
        "meta_inclination": 99.345,
        "meta_ra_of_asc_node": 28.3453,
        "meta_arg_of_pericenter": 238.21,
        "meta_mean_anomaly": 277.2882,
        "meta_ephemeris_type": 0,
        "meta_classification_type": "U",
        "meta_norad_cat_id": 33673,
        "meta_element_set_no": 999,
        "meta_rev_at_epoch": 89830,
        "meta_bstar": 0.00098940102,
        "meta_mean_motion_dot": 1.364e-05,
        "meta_mean_motion_ddot": 0,
        "tle_line1": "1 33673U 99025DFJ 25341.60612351  .00001364  00000+0  98940-3 0  9992",
        "tle_line2": "2 33673  99.3450  28.3453 0107458 238.2100 277.2882 13.95529173898309"
      },
      "geometry": {
        "type": "Point",
        "coordinates": [
          17.059046579275208,
          51.768891486727334
        ]
      }
    },
    {
      "type": "Feature",
      "properties": {
        "norad_id": 33674,
        "name": "FENGYUN 1C DEB",
        "group": "fengyun-1c-debris",
        "lat": -42.641005455219485,
        "lon": -155.29297520986125,
        "alt_km": 845.3881956661535,
        "timestamp": "2025-12-08T08:59:01.052798+00:00",
        "meta_object_name": "FENGYUN 1C DEB",
        "meta_object_id": "1999-025DFK",
        "meta_epoch": "2025-12-02T01:53:41.579808",
        "meta_mean_motion": 13.76813989,
        "meta_eccentricity": 0.02100329,
        "meta_inclination": 98.6065,
        "meta_ra_of_asc_node": 27.0218,
        "meta_arg_of_pericenter": 268.727,
        "meta_mean_anomaly": 88.9815,
        "meta_ephemeris_type": 0,
        "meta_classification_type": "U",
        "meta_norad_cat_id": 33674,
        "meta_element_set_no": 999,
        "meta_rev_at_epoch": 88218,
        "meta_bstar": 0.0021724399,
        "meta_mean_motion_dot": 2.475e-05,
        "meta_mean_motion_ddot": 0,
        "tle_line1": "1 33674U 99025DFK 25336.07895347  .00002475  00000+0  21724-2 0  9995",
        "tle_line2": "2 33674  98.6065  27.0218 0210032 268.7270  88.9815 13.76813989882180"
      },
      "geometry": {
        "type": "Point",
        "coordinates": [
          -155.29297520986125,
          -42.641005455219485
        ]
      }
    },
    {
      "type": "Feature",
      "properties": {
        "norad_id": 33676,
        "name": "FENGYUN 1C DEB",
        "group": "fengyun-1c-debris",
        "lat": -10.334846787058098,
        "lon": 8.301997969635153,
        "alt_km": 781.1383047798108,
        "timestamp": "2025-12-08T08:59:01.052809+00:00",
        "meta_object_name": "FENGYUN 1C DEB",
        "meta_object_id": "1999-025DFM",
        "meta_epoch": "2025-12-05T07:25:48.733248",
        "meta_mean_motion": 14.355515,
        "meta_eccentricity": 0.02052076,
        "meta_inclination": 99.0967,
        "meta_ra_of_asc_node": 3.3953,
        "meta_arg_of_pericenter": 91.243,
        "meta_mean_anomaly": 271.227,
        "meta_ephemeris_type": 0,
        "meta_classification_type": "U",
        "meta_norad_cat_id": 33676,
        "meta_element_set_no": 999,
        "meta_rev_at_epoch": 65204,
        "meta_bstar": 0.00023702104,
        "meta_mean_motion_dot": 8.12e-06,
        "meta_mean_motion_ddot": 0,
        "tle_line1": "1 33676U 99025DFM 25339.30959182  .00000812  00000+0  23702-3 0  9996",
        "tle_line2": "2 33676  99.0967   3.3953 0205207  91.2430 271.2270 14.35551500652042"
      },
      "geometry": {
        "type": "Point",
        "coordinates": [
          8.301997969635153,
          -10.334846787058098
        ]
      }
    },
    {
      "type": "Feature",
      "properties": {
        "norad_id": 33678,
        "name": "FENGYUN 1C DEB",
        "group": "fengyun-1c-debris",
        "lat": 67.3974445970742,
        "lon": -109.92459012411996,
        "alt_km": 836.6962852830384,
        "timestamp": "2025-12-08T08:59:01.052819+00:00",
        "meta_object_name": "FENGYUN 1C DEB",
        "meta_object_id": "1999-025DFP",
        "meta_epoch": "2025-12-06T09:59:52.156896",
        "meta_mean_motion": 14.47279188,
        "meta_eccentricity": 0.02049845,
        "meta_inclination": 99.0439,
        "meta_ra_of_asc_node": 45.4893,
        "meta_arg_of_pericenter": 255.6599,
        "meta_mean_anomaly": 102.1757,
        "meta_ephemeris_type": 0,
        "meta_classification_type": "U",
        "meta_norad_cat_id": 33678,
        "meta_element_set_no": 999,
        "meta_rev_at_epoch": 95004,
        "meta_bstar": 0.0013249114,
        "meta_mean_motion_dot": 6.253e-05,
        "meta_mean_motion_ddot": 0,
        "tle_line1": "1 33678U 99025DFP 25340.41657589  .00006253  00000+0  13249-2 0  9997",
        "tle_line2": "2 33678  99.0439  45.4893 0204984 255.6599 102.1757 14.47279188950046"
      },
      "geometry": {
        "type": "Point",
        "coordinates": [
          -109.92459012411996,
          67.3974445970742
        ]
      }
    },
    {
      "type": "Feature",
      "properties": {
        "norad_id": 33679,
        "name": "FENGYUN 1C DEB",
        "group": "fengyun-1c-debris",
        "lat": -28.488159331285726,
        "lon": -137.0160240353732,
        "alt_km": 591.0153143956522,
        "timestamp": "2025-12-08T08:59:01.052830+00:00",
        "meta_object_name": "FENGYUN 1C DEB",
        "meta_object_id": "1999-025DFQ",
        "meta_epoch": "2025-12-07T16:03:33.724512",
        "meta_mean_motion": 15.02269602,
        "meta_eccentricity": 0.01493848,
        "meta_inclination": 99.3493,
        "meta_ra_of_asc_node": 47.2643,
        "meta_arg_of_pericenter": 316.0979,
        "meta_mean_anomaly": 42.8447,
        "meta_ephemeris_type": 0,
        "meta_classification_type": "U",
        "meta_norad_cat_id": 33679,
        "meta_element_set_no": 999,
        "meta_rev_at_epoch": 94047,
        "meta_bstar": 0.0021044329,
        "meta_mean_motion_dot": 0.00035457,
        "meta_mean_motion_ddot": 0,
        "tle_line1": "1 33679U 99025DFQ 25341.66914033  .00035457  00000+0  21044-2 0  9996",
        "tle_line2": "2 33679  99.3493  47.2643 0149384 316.0979  42.8447 15.02269602940473"
      },
      "geometry": {
        "type": "Point",
        "coordinates": [
          -137.0160240353732,
          -28.488159331285726
        ]
      }
    },
    {
      "type": "Feature",
      "properties": {
        "norad_id": 33682,
        "name": "FENGYUN 1C DEB",
        "group": "fengyun-1c-debris",
        "lat": 52.11687266752282,
        "lon": -139.0550917637625,
        "alt_km": 780.323919178587,
        "timestamp": "2025-12-08T08:59:01.052840+00:00",
        "meta_object_name": "FENGYUN 1C DEB",
        "meta_object_id": "1999-025DFT",
        "meta_epoch": "2025-12-07T13:52:41.956032",
        "meta_mean_motion": 14.2663028,
        "meta_eccentricity": 0.00290121,
        "meta_inclination": 99.4196,
        "meta_ra_of_asc_node": 27.7688,
        "meta_arg_of_pericenter": 97.3894,
        "meta_mean_anomaly": 263.0582,
        "meta_ephemeris_type": 0,
        "meta_classification_type": "U",
        "meta_norad_cat_id": 33682,
        "meta_element_set_no": 999,
        "meta_rev_at_epoch": 91624,
        "meta_bstar": 0.0024546998,
        "meta_mean_motion_dot": 5.911e-05,
        "meta_mean_motion_ddot": 0,
        "tle_line1": "1 33682U 99025DFT 25341.57826338  .00005911  00000+0  24547-2 0  9993",
        "tle_line2": "2 33682  99.4196  27.7688 0029012  97.3894 263.0582 14.26630280916244"
      },
      "geometry": {
        "type": "Point",
        "coordinates": [
          -139.0550917637625,
          52.11687266752282
        ]
      }
    }
  ]
}